{
"type": "FeatureCollection",
"name": "oblast_samples",
"crs": { "type": "name", "properties": { "name": "urn:ogc:def:crs:OGC:1.3:CRS84" } },
"features": [
{ "type": "Feature", "properties": { "oblast": "Chernihiv", "oblast_uk": "Чернігівська область", "iso_3166_2": "UA-74", "sample_idx": 0 }, "geometry": { "type": "Polygon", "coordinates": [ [ [ 32.41510254384788, 50.398245671031781 ], [ 32.41510254384788, 50.408245671031786 ], [ 32.405102543847875, 50.408245671031786 ], [ 32.405102543847875, 50.398245671031781 ], [ 32.41510254384788, 50.398245671031781 ] ] ] } },
{ "type": "Feature", "properties": { "oblast": "Chernihiv", "oblast_uk": "Чернігівська область", "iso_3166_2": "UA-74", "sample_idx": 1 }, "geometry": { "type": "Polygon", "coordinates": [ [ [ 31.336910065730795, 50.795809463640246 ], [ 31.336910065730795, 50.805809463640252 ], [ 31.326910065730797, 50.805809463640252 ], [ 31.326910065730797, 50.795809463640246 ], [ 31.336910065730795, 50.795809463640246 ] ] ] } },
{ "type": "Feature", "properties": { "oblast": "Chernihiv", "oblast_uk": "Чернігівська область", "iso_3166_2": "UA-74", "sample_idx": 2 }, "geometry": { "type": "Polygon", "coordinates": [ [ [ 32.702241080130094, 51.705449840016293 ], [ 32.702241080130094, 51.715449840016298 ], [ 32.692241080130088, 51.715449840016298 ], [ 32.692241080130088, 51.705449840016293 ], [ 32.702241080130094, 51.705449840016293 ] ] ] } },
{ "type": "Feature", "properties": { "oblast": "Chernihiv", "oblast_uk": "Чернігівська область", "iso_3166_2": "UA-74", "sample_idx": 3 }, "geometry": { "type": "Polygon", "coordinates": [ [ [ 31.170057313487707, 51.361755311302232 ], [ 31.170057313487707, 51.371755311302238 ], [ 31.160057313487709, 51.371755311302238 ], [ 31.160057313487709, 51.361755311302232 ], [ 31.170057313487707, 51.361755311302232 ] ] ] } },
{ "type": "Feature", "properties": { "oblast": "Volyn", "oblast_uk": "Волинська область", "iso_3166_2": "UA-07", "sample_idx": 0 }, "geometry": { "type": "Polygon", "coordinates": [ [ [ 25.221646667188452, 51.190757344742309 ], [ 25.221646667188452, 51.200757344742314 ], [ 25.211646667188454, 51.200757344742314 ], [ 25.211646667188454, 51.190757344742309 ], [ 25.221646667188452, 51.190757344742309 ] ] ] } },
{ "type": "Feature", "properties": { "oblast": "Volyn", "oblast_uk": "Волинська область", "iso_3166_2": "UA-07", "sample_idx": 1 }, "geometry": { "type": "Polygon", "coordinates": [ [ [ 24.155559386940574, 51.263224693408851 ], [ 24.155559386940574, 51.273224693408856 ], [ 24.145559386940576, 51.273224693408856 ], [ 24.145559386940576, 51.263224693408851 ], [ 24.155559386940574, 51.263224693408851 ] ] ] } },
{ "type": "Feature", "properties": { "oblast": "Volyn", "oblast_uk": "Волинська область", "iso_3166_2": "UA-07", "sample_idx": 2 }, "geometry": { "type": "Polygon", "coordinates": [ [ [ 24.452985499202402, 50.554010938253292 ], [ 24.452985499202402, 50.564010938253297 ], [ 24.442985499202404, 50.564010938253297 ], [ 24.442985499202404, 50.554010938253292 ], [ 24.452985499202402, 50.554010938253292 ] ] ] } },
{ "type": "Feature", "properties": { "oblast": "Volyn", "oblast_uk": "Волинська область", "iso_3166_2": "UA-07", "sample_idx": 3 }, "geometry": { "type": "Polygon", "coordinates": [ [ [ 25.712210097318486, 51.286866472980648 ], [ 25.712210097318486, 51.296866472980653 ], [ 25.702210097318488, 51.296866472980653 ], [ 25.702210097318488, 51.286866472980648 ], [ 25.712210097318486, 51.286866472980648 ] ] ] } },
{ "type": "Feature", "properties": { "oblast": "Rivne", "oblast_uk": "Рівненська область", "iso_3166_2": "UA-56", "sample_idx": 0 }, "geometry": { "type": "Polygon", "coordinates": [ [ [ 27.194509674400329, 51.401247980857534 ], [ 27.194509674400329, 51.411247980857539 ], [ 27.184509674400331, 51.411247980857539 ], [ 27.184509674400331, 51.401247980857534 ], [ 27.194509674400329, 51.401247980857534 ] ] ] } },
{ "type": "Feature", "properties": { "oblast": "Rivne", "oblast_uk": "Рівненська область", "iso_3166_2": "UA-56", "sample_idx": 1 }, "geometry": { "type": "Polygon", "coordinates": [ [ [ 26.070865737861048, 51.064454338021527 ], [ 26.070865737861048, 51.074454338021532 ], [ 26.06086573786105, 51.074454338021532 ], [ 26.06086573786105, 51.064454338021527 ], [ 26.070865737861048, 51.064454338021527 ] ] ] } },
{ "type": "Feature", "properties": { "oblast": "Rivne", "oblast_uk": "Рівненська область", "iso_3166_2": "UA-56", "sample_idx": 2 }, "geometry": { "type": "Polygon", "coordinates": [ [ [ 27.252911653245224, 51.190458051103271 ], [ 27.252911653245224, 51.200458051103276 ], [ 27.242911653245226, 51.200458051103276 ], [ 27.242911653245226, 51.190458051103271 ], [ 27.252911653245224, 51.190458051103271 ] ] ] } },
{ "type": "Feature", "properties": { "oblast": "Rivne", "oblast_uk": "Рівненська область", "iso_3166_2": "UA-56", "sample_idx": 3 }, "geometry": { "type": "Polygon", "coordinates": [ [ [ 27.337598374209154, 51.112429472068186 ], [ 27.337598374209154, 51.122429472068191 ], [ 27.327598374209156, 51.122429472068191 ], [ 27.327598374209156, 51.112429472068186 ], [ 27.337598374209154, 51.112429472068186 ] ] ] } },
{ "type": "Feature", "properties": { "oblast": "Zhytomyr", "oblast_uk": "Житомирська область", "iso_3166_2": "UA-18", "sample_idx": 0 }, "geometry": { "type": "Polygon", "coordinates": [ [ [ 28.985634378387047, 49.680950426788463 ], [ 28.985634378387047, 49.690950426788469 ], [ 28.975634378387049, 49.690950426788469 ], [ 28.975634378387049, 49.680950426788463 ], [ 28.985634378387047, 49.680950426788463 ] ] ] } },
{ "type": "Feature", "properties": { "oblast": "Zhytomyr", "oblast_uk": "Житомирська область", "iso_3166_2": "UA-18", "sample_idx": 1 }, "geometry": { "type": "Polygon", "coordinates": [ [ [ 27.782495648135839, 50.180244069811415 ], [ 27.782495648135839, 50.190244069811421 ], [ 27.772495648135841, 50.190244069811421 ], [ 27.772495648135841, 50.180244069811415 ], [ 27.782495648135839, 50.180244069811415 ] ] ] } },
{ "type": "Feature", "properties": { "oblast": "Zhytomyr", "oblast_uk": "Житомирська область", "iso_3166_2": "UA-18", "sample_idx": 2 }, "geometry": { "type": "Polygon", "coordinates": [ [ [ 28.811760481996163, 50.334901088501852 ], [ 28.811760481996163, 50.344901088501857 ], [ 28.801760481996165, 50.344901088501857 ], [ 28.801760481996165, 50.334901088501852 ], [ 28.811760481996163, 50.334901088501852 ] ] ] } },
{ "type": "Feature", "properties": { "oblast": "Zhytomyr", "oblast_uk": "Житомирська область", "iso_3166_2": "UA-18", "sample_idx": 3 }, "geometry": { "type": "Polygon", "coordinates": [ [ [ 28.141621538281719, 50.016491993372725 ], [ 28.141621538281719, 50.02649199337273 ], [ 28.131621538281721, 50.02649199337273 ], [ 28.131621538281721, 50.016491993372725 ], [ 28.141621538281719, 50.016491993372725 ] ] ] } },
{ "type": "Feature", "properties": { "oblast": "Kiev", "oblast_uk": "Київ", "iso_3166_2": "UA-32", "sample_idx": 0 }, "geometry": { "type": "Polygon", "coordinates": [ [ [ 30.046022397022387, 51.332284629705924 ], [ 30.046022397022387, 51.342284629705929 ], [ 30.036022397022389, 51.342284629705929 ], [ 30.036022397022389, 51.332284629705924 ], [ 30.046022397022387, 51.332284629705924 ] ] ] } },
{ "type": "Feature", "properties": { "oblast": "Kiev", "oblast_uk": "Київ", "iso_3166_2": "UA-32", "sample_idx": 1 }, "geometry": { "type": "Polygon", "coordinates": [ [ [ 31.13152663879146, 50.578163316717465 ], [ 31.13152663879146, 50.58816331671747 ], [ 31.121526638791462, 50.58816331671747 ], [ 31.121526638791462, 50.578163316717465 ], [ 31.13152663879146, 50.578163316717465 ] ] ] } },
{ "type": "Feature", "properties": { "oblast": "Kiev", "oblast_uk": "Київ", "iso_3166_2": "UA-32", "sample_idx": 2 }, "geometry": { "type": "Polygon", "coordinates": [ [ [ 29.773008973879787, 50.854452992913195 ], [ 29.773008973879787, 50.864452992913201 ], [ 29.763008973879788, 50.864452992913201 ], [ 29.763008973879788, 50.854452992913195 ], [ 29.773008973879787, 50.854452992913195 ] ] ] } },
{ "type": "Feature", "properties": { "oblast": "Kiev", "oblast_uk": "Київ", "iso_3166_2": "UA-32", "sample_idx": 3 }, "geometry": { "type": "Polygon", "coordinates": [ [ [ 29.750971283865248, 50.049336547252629 ], [ 29.750971283865248, 50.059336547252634 ], [ 29.74097128386525, 50.059336547252634 ], [ 29.74097128386525, 50.049336547252629 ], [ 29.750971283865248, 50.049336547252629 ] ] ] } },
{ "type": "Feature", "properties": { "oblast": "Transcarpathia", "oblast_uk": "Закарпатська область", "iso_3166_2": "UA-21", "sample_idx": 0 }, "geometry": { "type": "Polygon", "coordinates": [ [ [ 23.533681965147757, 48.702001901074617 ], [ 23.533681965147757, 48.712001901074622 ], [ 23.523681965147759, 48.712001901074622 ], [ 23.523681965147759, 48.702001901074617 ], [ 23.533681965147757, 48.702001901074617 ] ] ] } },
{ "type": "Feature", "properties": { "oblast": "Transcarpathia", "oblast_uk": "Закарпатська область", "iso_3166_2": "UA-21", "sample_idx": 1 }, "geometry": { "type": "Polygon", "coordinates": [ [ [ 22.932772625152822, 48.214882750241976 ], [ 22.932772625152822, 48.224882750241981 ], [ 22.922772625152824, 48.224882750241981 ], [ 22.922772625152824, 48.214882750241976 ], [ 22.932772625152822, 48.214882750241976 ] ] ] } },
{ "type": "Feature", "properties": { "oblast": "Transcarpathia", "oblast_uk": "Закарпатська область", "iso_3166_2": "UA-21", "sample_idx": 2 }, "geometry": { "type": "Polygon", "coordinates": [ [ [ 22.672822395056102, 49.003821768472839 ], [ 22.672822395056102, 49.013821768472845 ], [ 22.662822395056104, 49.013821768472845 ], [ 22.662822395056104, 49.003821768472839 ], [ 22.672822395056102, 49.003821768472839 ] ] ] } },
{ "type": "Feature", "properties": { "oblast": "Transcarpathia", "oblast_uk": "Закарпатська область", "iso_3166_2": "UA-21", "sample_idx": 3 }, "geometry": { "type": "Polygon", "coordinates": [ [ [ 24.328480372247771, 48.269728934484661 ], [ 24.328480372247771, 48.279728934484666 ], [ 24.318480372247773, 48.279728934484666 ], [ 24.318480372247773, 48.269728934484661 ], [ 24.328480372247771, 48.269728934484661 ] ] ] } },
{ "type": "Feature", "properties": { "oblast": "Chernivtsi", "oblast_uk": "Чернівецька область", "iso_3166_2": "UA-77", "sample_idx": 0 }, "geometry": { "type": "Polygon", "coordinates": [ [ [ 25.619660570627879, 47.951797629628537 ], [ 25.619660570627879, 47.961797629628542 ], [ 25.609660570627881, 47.961797629628542 ], [ 25.609660570627881, 47.951797629628537 ], [ 25.619660570627879, 47.951797629628537 ] ] ] } },
{ "type": "Feature", "properties": { "oblast": "Chernivtsi", "oblast_uk": "Чернівецька область", "iso_3166_2": "UA-77", "sample_idx": 1 }, "geometry": { "type": "Polygon", "coordinates": [ [ [ 25.104948098880019, 48.079253711631068 ], [ 25.104948098880019, 48.089253711631073 ], [ 25.094948098880021, 48.089253711631073 ], [ 25.094948098880021, 48.079253711631068 ], [ 25.104948098880019, 48.079253711631068 ] ] ] } },
{ "type": "Feature", "properties": { "oblast": "Chernivtsi", "oblast_uk": "Чернівецька область", "iso_3166_2": "UA-77", "sample_idx": 2 }, "geometry": { "type": "Polygon", "coordinates": [ [ [ 27.424898143401638, 48.531665775362697 ], [ 27.424898143401638, 48.541665775362702 ], [ 27.41489814340164, 48.541665775362702 ], [ 27.41489814340164, 48.531665775362697 ], [ 27.424898143401638, 48.531665775362697 ] ] ] } },
{ "type": "Feature", "properties": { "oblast": "Chernivtsi", "oblast_uk": "Чернівецька область", "iso_3166_2": "UA-77", "sample_idx": 3 }, "geometry": { "type": "Polygon", "coordinates": [ [ [ 25.62463258749893, 48.324118849169949 ], [ 25.62463258749893, 48.334118849169954 ], [ 25.614632587498932, 48.334118849169954 ], [ 25.614632587498932, 48.324118849169949 ], [ 25.62463258749893, 48.324118849169949 ] ] ] } },
{ "type": "Feature", "properties": { "oblast": "Ivano-Frankivs'k", "oblast_uk": "Івано-Франківська область", "iso_3166_2": "UA-26", "sample_idx": 0 }, "geometry": { "type": "Polygon", "coordinates": [ [ [ 24.49768873567394, 49.426794912191106 ], [ 24.49768873567394, 49.436794912191111 ], [ 24.487688735673942, 49.436794912191111 ], [ 24.487688735673942, 49.426794912191106 ], [ 24.49768873567394, 49.426794912191106 ] ] ] } },
{ "type": "Feature", "properties": { "oblast": "Ivano-Frankivs'k", "oblast_uk": "Івано-Франківська область", "iso_3166_2": "UA-26", "sample_idx": 1 }, "geometry": { "type": "Polygon", "coordinates": [ [ [ 24.172626139092689, 48.861730224165932 ], [ 24.172626139092689, 48.871730224165937 ], [ 24.162626139092691, 48.871730224165937 ], [ 24.162626139092691, 48.861730224165932 ], [ 24.172626139092689, 48.861730224165932 ] ] ] } },
{ "type": "Feature", "properties": { "oblast": "Ivano-Frankivs'k", "oblast_uk": "Івано-Франківська область", "iso_3166_2": "UA-26", "sample_idx": 2 }, "geometry": { "type": "Polygon", "coordinates": [ [ [ 24.822683485281104, 47.989348493718936 ], [ 24.822683485281104, 47.999348493718941 ], [ 24.812683485281106, 47.999348493718941 ], [ 24.812683485281106, 47.989348493718936 ], [ 24.822683485281104, 47.989348493718936 ] ] ] } },
{ "type": "Feature", "properties": { "oblast": "Ivano-Frankivs'k", "oblast_uk": "Івано-Франківська область", "iso_3166_2": "UA-26", "sample_idx": 3 }, "geometry": { "type": "Polygon", "coordinates": [ [ [ 25.144107050491723, 48.683039364286088 ], [ 25.144107050491723, 48.693039364286093 ], [ 25.134107050491725, 48.693039364286093 ], [ 25.134107050491725, 48.683039364286088 ], [ 25.144107050491723, 48.683039364286088 ] ] ] } },
{ "type": "Feature", "properties": { "oblast": "Odessa", "oblast_uk": "Одеська область", "iso_3166_2": "UA-51", "sample_idx": 0 }, "geometry": { "type": "Polygon", "coordinates": [ [ [ 30.618355096880805, 46.803613330831503 ], [ 30.618355096880805, 46.813613330831508 ], [ 30.608355096880807, 46.813613330831508 ], [ 30.608355096880807, 46.803613330831503 ], [ 30.618355096880805, 46.803613330831503 ] ] ] } },
{ "type": "Feature", "properties": { "oblast": "Odessa", "oblast_uk": "Одеська область", "iso_3166_2": "UA-51", "sample_idx": 1 }, "geometry": { "type": "Polygon", "coordinates": [ [ [ 29.163887723692696, 45.391686847346172 ], [ 29.163887723692696, 45.401686847346177 ], [ 29.153887723692698, 45.401686847346177 ], [ 29.153887723692698, 45.391686847346172 ], [ 29.163887723692696, 45.391686847346172 ] ] ] } },
{ "type": "Feature", "properties": { "oblast": "Odessa", "oblast_uk": "Одеська область", "iso_3166_2": "UA-51", "sample_idx": 2 }, "geometry": { "type": "Polygon", "coordinates": [ [ [ 29.520853668302966, 45.851560492063129 ], [ 29.520853668302966, 45.861560492063134 ], [ 29.510853668302968, 45.861560492063134 ], [ 29.510853668302968, 45.851560492063129 ], [ 29.520853668302966, 45.851560492063129 ] ] ] } },
{ "type": "Feature", "properties": { "oblast": "Odessa", "oblast_uk": "Одеська область", "iso_3166_2": "UA-51", "sample_idx": 3 }, "geometry": { "type": "Polygon", "coordinates": [ [ [ 29.879469264094279, 47.400081598051557 ], [ 29.879469264094279, 47.410081598051562 ], [ 29.869469264094281, 47.410081598051562 ], [ 29.869469264094281, 47.400081598051557 ], [ 29.879469264094279, 47.400081598051557 ] ] ] } },
{ "type": "Feature", "properties": { "oblast": "Vinnytsya", "oblast_uk": "Вінницька область", "iso_3166_2": "UA-05", "sample_idx": 0 }, "geometry": { "type": "Polygon", "coordinates": [ [ [ 27.925638757455072, 48.58557429187352 ], [ 27.925638757455072, 48.595574291873525 ], [ 27.915638757455074, 48.595574291873525 ], [ 27.915638757455074, 48.58557429187352 ], [ 27.925638757455072, 48.58557429187352 ] ] ] } },
{ "type": "Feature", "properties": { "oblast": "Vinnytsya", "oblast_uk": "Вінницька область", "iso_3166_2": "UA-05", "sample_idx": 1 }, "geometry": { "type": "Polygon", "coordinates": [ [ [ 28.562018977906455, 48.968657910856344 ], [ 28.562018977906455, 48.978657910856349 ], [ 28.552018977906457, 48.978657910856349 ], [ 28.552018977906457, 48.968657910856344 ], [ 28.562018977906455, 48.968657910856344 ] ] ] } },
{ "type": "Feature", "properties": { "oblast": "Vinnytsya", "oblast_uk": "Вінницька область", "iso_3166_2": "UA-05", "sample_idx": 2 }, "geometry": { "type": "Polygon", "coordinates": [ [ [ 28.293407344612994, 49.100284579129308 ], [ 28.293407344612994, 49.110284579129313 ], [ 28.283407344612996, 49.110284579129313 ], [ 28.283407344612996, 49.100284579129308 ], [ 28.293407344612994, 49.100284579129308 ] ] ] } },
{ "type": "Feature", "properties": { "oblast": "Vinnytsya", "oblast_uk": "Вінницька область", "iso_3166_2": "UA-05", "sample_idx": 3 }, "geometry": { "type": "Polygon", "coordinates": [ [ [ 28.003427246110274, 48.415304161515273 ], [ 28.003427246110274, 48.425304161515278 ], [ 27.993427246110276, 48.425304161515278 ], [ 27.993427246110276, 48.415304161515273 ], [ 28.003427246110274, 48.415304161515273 ] ] ] } },
{ "type": "Feature", "properties": { "oblast": "L'viv", "oblast_uk": "Львівська область", "iso_3166_2": "UA-46", "sample_idx": 0 }, "geometry": { "type": "Polygon", "coordinates": [ [ [ 23.315899088552214, 50.000277304136382 ], [ 23.315899088552214, 50.010277304136387 ], [ 23.305899088552216, 50.010277304136387 ], [ 23.305899088552216, 50.000277304136382 ], [ 23.315899088552214, 50.000277304136382 ] ] ] } },
{ "type": "Feature", "properties": { "oblast": "L'viv", "oblast_uk": "Львівська область", "iso_3166_2": "UA-46", "sample_idx": 1 }, "geometry": { "type": "Polygon", "coordinates": [ [ [ 23.249991927635335, 48.98018960141443 ], [ 23.249991927635335, 48.990189601414436 ], [ 23.239991927635337, 48.990189601414436 ], [ 23.239991927635337, 48.98018960141443 ], [ 23.249991927635335, 48.98018960141443 ] ] ] } },
{ "type": "Feature", "properties": { "oblast": "L'viv", "oblast_uk": "Львівська область", "iso_3166_2": "UA-46", "sample_idx": 2 }, "geometry": { "type": "Polygon", "coordinates": [ [ [ 23.966618889588165, 50.220087458836772 ], [ 23.966618889588165, 50.230087458836778 ], [ 23.956618889588167, 50.230087458836778 ], [ 23.956618889588167, 50.220087458836772 ], [ 23.966618889588165, 50.220087458836772 ] ] ] } },
{ "type": "Feature", "properties": { "oblast": "L'viv", "oblast_uk": "Львівська область", "iso_3166_2": "UA-46", "sample_idx": 3 }, "geometry": { "type": "Polygon", "coordinates": [ [ [ 22.924707459393105, 49.548029488047732 ], [ 22.924707459393105, 49.558029488047737 ], [ 22.914707459393107, 49.558029488047737 ], [ 22.914707459393107, 49.548029488047732 ], [ 22.924707459393105, 49.548029488047732 ] ] ] } },
{ "type": "Feature", "properties": { "oblast": "Sumy", "oblast_uk": "Сумська область", "iso_3166_2": "UA-59", "sample_idx": 0 }, "geometry": { "type": "Polygon", "coordinates": [ [ [ 34.112028826802913, 51.155449441245203 ], [ 34.112028826802913, 51.165449441245208 ], [ 34.102028826802908, 51.165449441245208 ], [ 34.102028826802908, 51.155449441245203 ], [ 34.112028826802913, 51.155449441245203 ] ] ] } },
{ "type": "Feature", "properties": { "oblast": "Sumy", "oblast_uk": "Сумська область", "iso_3166_2": "UA-59", "sample_idx": 1 }, "geometry": { "type": "Polygon", "coordinates": [ [ [ 35.643938555158854, 50.33206846206869 ], [ 35.643938555158854, 50.342068462068696 ], [ 35.633938555158849, 50.342068462068696 ], [ 35.633938555158849, 50.33206846206869 ], [ 35.643938555158854, 50.33206846206869 ] ] ] } },
{ "type": "Feature", "properties": { "oblast": "Sumy", "oblast_uk": "Сумська область", "iso_3166_2": "UA-59", "sample_idx": 2 }, "geometry": { "type": "Polygon", "coordinates": [ [ [ 34.054758897233341, 50.870148361913053 ], [ 34.054758897233341, 50.880148361913058 ], [ 34.044758897233336, 50.880148361913058 ], [ 34.044758897233336, 50.870148361913053 ], [ 34.054758897233341, 50.870148361913053 ] ] ] } },
{ "type": "Feature", "properties": { "oblast": "Sumy", "oblast_uk": "Сумська область", "iso_3166_2": "UA-59", "sample_idx": 3 }, "geometry": { "type": "Polygon", "coordinates": [ [ [ 35.309203967485857, 50.667665889000695 ], [ 35.309203967485857, 50.6776658890007 ], [ 35.299203967485852, 50.6776658890007 ], [ 35.299203967485852, 50.667665889000695 ], [ 35.309203967485857, 50.667665889000695 ] ] ] } },
{ "type": "Feature", "properties": { "oblast": "Kharkiv", "oblast_uk": "Харківська область", "iso_3166_2": "UA-63", "sample_idx": 0 }, "geometry": { "type": "Polygon", "coordinates": [ [ [ 35.468827010911994, 49.377594036252539 ], [ 35.468827010911994, 49.387594036252544 ], [ 35.458827010911989, 49.387594036252544 ], [ 35.458827010911989, 49.377594036252539 ], [ 35.468827010911994, 49.377594036252539 ] ] ] } },
{ "type": "Feature", "properties": { "oblast": "Kharkiv", "oblast_uk": "Харківська область", "iso_3166_2": "UA-63", "sample_idx": 1 }, "geometry": { "type": "Polygon", "coordinates": [ [ [ 36.214671615555474, 49.057045718783186 ], [ 36.214671615555474, 49.067045718783191 ], [ 36.204671615555469, 49.067045718783191 ], [ 36.204671615555469, 49.057045718783186 ], [ 36.214671615555474, 49.057045718783186 ] ] ] } },
{ "type": "Feature", "properties": { "oblast": "Kharkiv", "oblast_uk": "Харківська область", "iso_3166_2": "UA-63", "sample_idx": 2 }, "geometry": { "type": "Polygon", "coordinates": [ [ [ 35.660694663936702, 50.272227687423531 ], [ 35.660694663936702, 50.282227687423536 ], [ 35.650694663936697, 50.282227687423536 ], [ 35.650694663936697, 50.272227687423531 ], [ 35.660694663936702, 50.272227687423531 ] ] ] } },
{ "type": "Feature", "properties": { "oblast": "Kharkiv", "oblast_uk": "Харківська область", "iso_3166_2": "UA-63", "sample_idx": 3 }, "geometry": { "type": "Polygon", "coordinates": [ [ [ 36.283080747635019, 50.155526243941836 ], [ 36.283080747635019, 50.165526243941841 ], [ 36.273080747635014, 50.165526243941841 ], [ 36.273080747635014, 50.155526243941836 ], [ 36.283080747635019, 50.155526243941836 ] ] ] } },
{ "type": "Feature", "properties": { "oblast": "Luhans'k", "oblast_uk": "Луганська область", "iso_3166_2": "UA-09", "sample_idx": 0 }, "geometry": { "type": "Polygon", "coordinates": [ [ [ 39.12379450962186, 47.92940281267078 ], [ 39.12379450962186, 47.939402812670785 ], [ 39.113794509621854, 47.939402812670785 ], [ 39.113794509621854, 47.92940281267078 ], [ 39.12379450962186, 47.92940281267078 ] ] ] } },
{ "type": "Feature", "properties": { "oblast": "Luhans'k", "oblast_uk": "Луганська область", "iso_3166_2": "UA-09", "sample_idx": 1 }, "geometry": { "type": "Polygon", "coordinates": [ [ [ 39.807722019174626, 48.187610186213654 ], [ 39.807722019174626, 48.197610186213659 ], [ 39.797722019174621, 48.197610186213659 ], [ 39.797722019174621, 48.187610186213654 ], [ 39.807722019174626, 48.187610186213654 ] ] ] } },
{ "type": "Feature", "properties": { "oblast": "Luhans'k", "oblast_uk": "Луганська область", "iso_3166_2": "UA-09", "sample_idx": 2 }, "geometry": { "type": "Polygon", "coordinates": [ [ [ 38.975524803025309, 48.293452558423006 ], [ 38.975524803025309, 48.303452558423011 ], [ 38.965524803025303, 48.303452558423011 ], [ 38.965524803025303, 48.293452558423006 ], [ 38.975524803025309, 48.293452558423006 ] ] ] } },
{ "type": "Feature", "properties": { "oblast": "Luhans'k", "oblast_uk": "Луганська область", "iso_3166_2": "UA-09", "sample_idx": 3 }, "geometry": { "type": "Polygon", "coordinates": [ [ [ 38.470234575623294, 49.565990953198025 ], [ 38.470234575623294, 49.57599095319803 ], [ 38.460234575623289, 49.57599095319803 ], [ 38.460234575623289, 49.565990953198025 ], [ 38.470234575623294, 49.565990953198025 ] ] ] } },
{ "type": "Feature", "properties": { "oblast": "Donets'k", "oblast_uk": "Донецька область", "iso_3166_2": "UA-14", "sample_idx": 0 }, "geometry": { "type": "Polygon", "coordinates": [ [ [ 37.685654977624189, 47.868783303775018 ], [ 37.685654977624189, 47.878783303775023 ], [ 37.675654977624184, 47.878783303775023 ], [ 37.675654977624184, 47.868783303775018 ], [ 37.685654977624189, 47.868783303775018 ] ] ] } },
{ "type": "Feature", "properties": { "oblast": "Donets'k", "oblast_uk": "Донецька область", "iso_3166_2": "UA-14", "sample_idx": 1 }, "geometry": { "type": "Polygon", "coordinates": [ [ [ 37.937997578612531, 48.558896870745365 ], [ 37.937997578612531, 48.56889687074537 ], [ 37.927997578612526, 48.56889687074537 ], [ 37.927997578612526, 48.558896870745365 ], [ 37.937997578612531, 48.558896870745365 ] ] ] } },
{ "type": "Feature", "properties": { "oblast": "Donets'k", "oblast_uk": "Донецька область", "iso_3166_2": "UA-14", "sample_idx": 2 }, "geometry": { "type": "Polygon", "coordinates": [ [ [ 36.933807077636594, 47.573722788139676 ], [ 36.933807077636594, 47.583722788139681 ], [ 36.923807077636589, 47.583722788139681 ], [ 36.923807077636589, 47.573722788139676 ], [ 36.933807077636594, 47.573722788139676 ] ] ] } },
{ "type": "Feature", "properties": { "oblast": "Donets'k", "oblast_uk": "Донецька область", "iso_3166_2": "UA-14", "sample_idx": 3 }, "geometry": { "type": "Polygon", "coordinates": [ [ [ 37.904005137064999, 48.627971786293173 ], [ 37.904005137064999, 48.637971786293178 ], [ 37.894005137064994, 48.637971786293178 ], [ 37.894005137064994, 48.627971786293173 ], [ 37.904005137064999, 48.627971786293173 ] ] ] } },
{ "type": "Feature", "properties": { "oblast": "Kherson", "oblast_uk": "Херсонська область", "iso_3166_2": "UA-65", "sample_idx": 0 }, "geometry": { "type": "Polygon", "coordinates": [ [ [ 33.450657201243807, 47.296047408686015 ], [ 33.450657201243807, 47.30604740868602 ], [ 33.440657201243802, 47.30604740868602 ], [ 33.440657201243802, 47.296047408686015 ], [ 33.450657201243807, 47.296047408686015 ] ] ] } },
{ "type": "Feature", "properties": { "oblast": "Kherson", "oblast_uk": "Херсонська область", "iso_3166_2": "UA-65", "sample_idx": 1 }, "geometry": { "type": "Polygon", "coordinates": [ [ [ 33.756499538067267, 46.968451187881904 ], [ 33.756499538067267, 46.978451187881909 ], [ 33.746499538067262, 46.978451187881909 ], [ 33.746499538067262, 46.968451187881904 ], [ 33.756499538067267, 46.968451187881904 ] ] ] } },
{ "type": "Feature", "properties": { "oblast": "Kherson", "oblast_uk": "Херсонська область", "iso_3166_2": "UA-65", "sample_idx": 2 }, "geometry": { "type": "Polygon", "coordinates": [ [ [ 34.736061245154964, 46.176721310162776 ], [ 34.736061245154964, 46.186721310162781 ], [ 34.726061245154959, 46.186721310162781 ], [ 34.726061245154959, 46.176721310162776 ], [ 34.736061245154964, 46.176721310162776 ] ] ] } },
{ "type": "Feature", "properties": { "oblast": "Kherson", "oblast_uk": "Херсонська область", "iso_3166_2": "UA-65", "sample_idx": 3 }, "geometry": { "type": "Polygon", "coordinates": [ [ [ 33.754787755033639, 46.865412975829592 ], [ 33.754787755033639, 46.875412975829597 ], [ 33.744787755033634, 46.875412975829597 ], [ 33.744787755033634, 46.865412975829592 ], [ 33.754787755033639, 46.865412975829592 ] ] ] } },
{ "type": "Feature", "properties": { "oblast": "Zaporizhzhya", "oblast_uk": "Запорізька область", "iso_3166_2": "UA-23", "sample_idx": 0 }, "geometry": { "type": "Polygon", "coordinates": [ [ [ 35.475224329712169, 47.342882907969404 ], [ 35.475224329712169, 47.352882907969409 ], [ 35.465224329712164, 47.352882907969409 ], [ 35.465224329712164, 47.342882907969404 ], [ 35.475224329712169, 47.342882907969404 ] ] ] } },
{ "type": "Feature", "properties": { "oblast": "Zaporizhzhya", "oblast_uk": "Запорізька область", "iso_3166_2": "UA-23", "sample_idx": 1 }, "geometry": { "type": "Polygon", "coordinates": [ [ [ 35.785605715491165, 47.994066352014741 ], [ 35.785605715491165, 48.004066352014746 ], [ 35.77560571549116, 48.004066352014746 ], [ 35.77560571549116, 47.994066352014741 ], [ 35.785605715491165, 47.994066352014741 ] ] ] } },
{ "type": "Feature", "properties": { "oblast": "Zaporizhzhya", "oblast_uk": "Запорізька область", "iso_3166_2": "UA-23", "sample_idx": 2 }, "geometry": { "type": "Polygon", "coordinates": [ [ [ 34.93411652971988, 46.994345297041143 ], [ 34.93411652971988, 47.004345297041148 ], [ 34.924116529719875, 47.004345297041148 ], [ 34.924116529719875, 46.994345297041143 ], [ 34.93411652971988, 46.994345297041143 ] ] ] } },
{ "type": "Feature", "properties": { "oblast": "Zaporizhzhya", "oblast_uk": "Запорізька область", "iso_3166_2": "UA-23", "sample_idx": 3 }, "geometry": { "type": "Polygon", "coordinates": [ [ [ 36.231908344756071, 46.816652923088554 ], [ 36.231908344756071, 46.82665292308856 ], [ 36.221908344756066, 46.82665292308856 ], [ 36.221908344756066, 46.816652923088554 ], [ 36.231908344756071, 46.816652923088554 ] ] ] } },
{ "type": "Feature", "properties": { "oblast": "Mykolayiv", "oblast_uk": "Миколаївська область", "iso_3166_2": "UA-48", "sample_idx": 0 }, "geometry": { "type": "Polygon", "coordinates": [ [ [ 31.143313172799754, 47.809037056111777 ], [ 31.143313172799754, 47.819037056111782 ], [ 31.133313172799756, 47.819037056111782 ], [ 31.133313172799756, 47.809037056111777 ], [ 31.143313172799754, 47.809037056111777 ] ] ] } },
{ "type": "Feature", "properties": { "oblast": "Mykolayiv", "oblast_uk": "Миколаївська область", "iso_3166_2": "UA-48", "sample_idx": 1 }, "geometry": { "type": "Polygon", "coordinates": [ [ [ 30.995091812595515, 48.09921823960498 ], [ 30.995091812595515, 48.109218239604985 ], [ 30.985091812595517, 48.109218239604985 ], [ 30.985091812595517, 48.09921823960498 ], [ 30.995091812595515, 48.09921823960498 ] ] ] } },
{ "type": "Feature", "properties": { "oblast": "Mykolayiv", "oblast_uk": "Миколаївська область", "iso_3166_2": "UA-48", "sample_idx": 2 }, "geometry": { "type": "Polygon", "coordinates": [ [ [ 31.298434649523134, 46.858614638307579 ], [ 31.298434649523134, 46.868614638307584 ], [ 31.288434649523136, 46.868614638307584 ], [ 31.288434649523136, 46.858614638307579 ], [ 31.298434649523134, 46.858614638307579 ] ] ] } },
{ "type": "Feature", "properties": { "oblast": "Mykolayiv", "oblast_uk": "Миколаївська область", "iso_3166_2": "UA-48", "sample_idx": 3 }, "geometry": { "type": "Polygon", "coordinates": [ [ [ 32.648206083916001, 47.731731237405967 ], [ 32.648206083916001, 47.741731237405972 ], [ 32.638206083915996, 47.741731237405972 ], [ 32.638206083915996, 47.731731237405967 ], [ 32.648206083916001, 47.731731237405967 ] ] ] } },
{ "type": "Feature", "properties": { "oblast": "Poltava", "oblast_uk": "Полтавська область", "iso_3166_2": "UA-53", "sample_idx": 0 }, "geometry": { "type": "Polygon", "coordinates": [ [ [ 34.850866684865032, 49.284268330277527 ], [ 34.850866684865032, 49.294268330277532 ], [ 34.840866684865027, 49.294268330277532 ], [ 34.840866684865027, 49.284268330277527 ], [ 34.850866684865032, 49.284268330277527 ] ] ] } },
{ "type": "Feature", "properties": { "oblast": "Poltava", "oblast_uk": "Полтавська область", "iso_3166_2": "UA-53", "sample_idx": 1 }, "geometry": { "type": "Polygon", "coordinates": [ [ [ 33.006551796172054, 49.828071854689199 ], [ 33.006551796172054, 49.838071854689204 ], [ 32.996551796172049, 49.838071854689204 ], [ 32.996551796172049, 49.828071854689199 ], [ 33.006551796172054, 49.828071854689199 ] ] ] } },
{ "type": "Feature", "properties": { "oblast": "Poltava", "oblast_uk": "Полтавська область", "iso_3166_2": "UA-53", "sample_idx": 2 }, "geometry": { "type": "Polygon", "coordinates": [ [ [ 34.514028711603423, 49.113745818268519 ], [ 34.514028711603423, 49.123745818268524 ], [ 34.504028711603418, 49.123745818268524 ], [ 34.504028711603418, 49.113745818268519 ], [ 34.514028711603423, 49.113745818268519 ] ] ] } },
{ "type": "Feature", "properties": { "oblast": "Poltava", "oblast_uk": "Полтавська область", "iso_3166_2": "UA-53", "sample_idx": 3 }, "geometry": { "type": "Polygon", "coordinates": [ [ [ 34.231758571774414, 49.221253837706328 ], [ 34.231758571774414, 49.231253837706333 ], [ 34.221758571774409, 49.231253837706333 ], [ 34.221758571774409, 49.221253837706328 ], [ 34.231758571774414, 49.221253837706328 ] ] ] } },
{ "type": "Feature", "properties": { "oblast": "Khmel'nyts'kyy", "oblast_uk": "Хмельницька область", "iso_3166_2": "UA-68", "sample_idx": 0 }, "geometry": { "type": "Polygon", "coordinates": [ [ [ 27.003960553987451, 50.371879283816391 ], [ 27.003960553987451, 50.381879283816396 ], [ 26.993960553987453, 50.381879283816396 ], [ 26.993960553987453, 50.371879283816391 ], [ 27.003960553987451, 50.371879283816391 ] ] ] } },
{ "type": "Feature", "properties": { "oblast": "Khmel'nyts'kyy", "oblast_uk": "Хмельницька область", "iso_3166_2": "UA-68", "sample_idx": 1 }, "geometry": { "type": "Polygon", "coordinates": [ [ [ 26.892199358400902, 49.041922750898365 ], [ 26.892199358400902, 49.05192275089837 ], [ 26.882199358400904, 49.05192275089837 ], [ 26.882199358400904, 49.041922750898365 ], [ 26.892199358400902, 49.041922750898365 ] ] ] } },
{ "type": "Feature", "properties": { "oblast": "Khmel'nyts'kyy", "oblast_uk": "Хмельницька область", "iso_3166_2": "UA-68", "sample_idx": 2 }, "geometry": { "type": "Polygon", "coordinates": [ [ [ 27.259604813908723, 49.010771293704721 ], [ 27.259604813908723, 49.020771293704726 ], [ 27.249604813908725, 49.020771293704726 ], [ 27.249604813908725, 49.010771293704721 ], [ 27.259604813908723, 49.010771293704721 ] ] ] } },
{ "type": "Feature", "properties": { "oblast": "Khmel'nyts'kyy", "oblast_uk": "Хмельницька область", "iso_3166_2": "UA-68", "sample_idx": 3 }, "geometry": { "type": "Polygon", "coordinates": [ [ [ 27.438745855448012, 49.623700628405153 ], [ 27.438745855448012, 49.633700628405158 ], [ 27.428745855448014, 49.633700628405158 ], [ 27.428745855448014, 49.623700628405153 ], [ 27.438745855448012, 49.623700628405153 ] ] ] } },
{ "type": "Feature", "properties": { "oblast": "Ternopil'", "oblast_uk": "Тернопільська область", "iso_3166_2": "UA-61", "sample_idx": 0 }, "geometry": { "type": "Polygon", "coordinates": [ [ [ 26.102044580752917, 49.525848930746101 ], [ 26.102044580752917, 49.535848930746106 ], [ 26.092044580752919, 49.535848930746106 ], [ 26.092044580752919, 49.525848930746101 ], [ 26.102044580752917, 49.525848930746101 ] ] ] } },
{ "type": "Feature", "properties": { "oblast": "Ternopil'", "oblast_uk": "Тернопільська область", "iso_3166_2": "UA-61", "sample_idx": 1 }, "geometry": { "type": "Polygon", "coordinates": [ [ [ 26.03843034725567, 50.008552299759479 ], [ 26.03843034725567, 50.018552299759484 ], [ 26.028430347255672, 50.018552299759484 ], [ 26.028430347255672, 50.008552299759479 ], [ 26.03843034725567, 50.008552299759479 ] ] ] } },
{ "type": "Feature", "properties": { "oblast": "Ternopil'", "oblast_uk": "Тернопільська область", "iso_3166_2": "UA-61", "sample_idx": 2 }, "geometry": { "type": "Polygon", "coordinates": [ [ [ 26.208412931777016, 48.879626102004032 ], [ 26.208412931777016, 48.889626102004037 ], [ 26.198412931777018, 48.889626102004037 ], [ 26.198412931777018, 48.879626102004032 ], [ 26.208412931777016, 48.879626102004032 ] ] ] } },
{ "type": "Feature", "properties": { "oblast": "Ternopil'", "oblast_uk": "Тернопільська область", "iso_3166_2": "UA-61", "sample_idx": 3 }, "geometry": { "type": "Polygon", "coordinates": [ [ [ 26.011964488785239, 50.049210268763154 ], [ 26.011964488785239, 50.059210268763159 ], [ 26.001964488785241, 50.059210268763159 ], [ 26.001964488785241, 50.049210268763154 ], [ 26.011964488785239, 50.049210268763154 ] ] ] } },
{ "type": "Feature", "properties": { "oblast": "Dnipropetrovs'k", "oblast_uk": "Дніпропетровська область", "iso_3166_2": "UA-12", "sample_idx": 0 }, "geometry": { "type": "Polygon", "coordinates": [ [ [ 34.59314716214687, 48.52728653062433 ], [ 34.59314716214687, 48.537286530624336 ], [ 34.583147162146865, 48.537286530624336 ], [ 34.583147162146865, 48.52728653062433 ], [ 34.59314716214687, 48.52728653062433 ] ] ] } },
{ "type": "Feature", "properties": { "oblast": "Dnipropetrovs'k", "oblast_uk": "Дніпропетровська область", "iso_3166_2": "UA-12", "sample_idx": 1 }, "geometry": { "type": "Polygon", "coordinates": [ [ [ 36.179671523492466, 47.929572307181523 ], [ 36.179671523492466, 47.939572307181528 ], [ 36.169671523492461, 47.939572307181528 ], [ 36.169671523492461, 47.929572307181523 ], [ 36.179671523492466, 47.929572307181523 ] ] ] } },
{ "type": "Feature", "properties": { "oblast": "Dnipropetrovs'k", "oblast_uk": "Дніпропетровська область", "iso_3166_2": "UA-12", "sample_idx": 2 }, "geometry": { "type": "Polygon", "coordinates": [ [ [ 34.804721361287946, 47.99441045514093 ], [ 34.804721361287946, 48.004410455140935 ], [ 34.794721361287941, 48.004410455140935 ], [ 34.794721361287941, 47.99441045514093 ], [ 34.804721361287946, 47.99441045514093 ] ] ] } },
{ "type": "Feature", "properties": { "oblast": "Dnipropetrovs'k", "oblast_uk": "Дніпропетровська область", "iso_3166_2": "UA-12", "sample_idx": 3 }, "geometry": { "type": "Polygon", "coordinates": [ [ [ 36.119235746474367, 47.863340504654886 ], [ 36.119235746474367, 47.873340504654891 ], [ 36.109235746474361, 47.873340504654891 ], [ 36.109235746474361, 47.863340504654886 ], [ 36.119235746474367, 47.863340504654886 ] ] ] } },
{ "type": "Feature", "properties": { "oblast": "Cherkasy", "oblast_uk": "Черкаська область", "iso_3166_2": "UA-71", "sample_idx": 0 }, "geometry": { "type": "Polygon", "coordinates": [ [ [ 31.687895116180961, 49.169003224833645 ], [ 31.687895116180961, 49.17900322483365 ], [ 31.677895116180963, 49.17900322483365 ], [ 31.677895116180963, 49.169003224833645 ], [ 31.687895116180961, 49.169003224833645 ] ] ] } },
{ "type": "Feature", "properties": { "oblast": "Cherkasy", "oblast_uk": "Черкаська область", "iso_3166_2": "UA-71", "sample_idx": 1 }, "geometry": { "type": "Polygon", "coordinates": [ [ [ 29.959309485475874, 49.231034064732555 ], [ 29.959309485475874, 49.24103406473256 ], [ 29.949309485475876, 49.24103406473256 ], [ 29.949309485475876, 49.231034064732555 ], [ 29.959309485475874, 49.231034064732555 ] ] ] } },
{ "type": "Feature", "properties": { "oblast": "Cherkasy", "oblast_uk": "Черкаська область", "iso_3166_2": "UA-71", "sample_idx": 2 }, "geometry": { "type": "Polygon", "coordinates": [ [ [ 31.970210407939632, 49.016081872083944 ], [ 31.970210407939632, 49.02608187208395 ], [ 31.960210407939634, 49.02608187208395 ], [ 31.960210407939634, 49.016081872083944 ], [ 31.970210407939632, 49.016081872083944 ] ] ] } },
{ "type": "Feature", "properties": { "oblast": "Cherkasy", "oblast_uk": "Черкаська область", "iso_3166_2": "UA-71", "sample_idx": 3 }, "geometry": { "type": "Polygon", "coordinates": [ [ [ 31.573517733476645, 49.367700134977824 ], [ 31.573517733476645, 49.377700134977829 ], [ 31.563517733476647, 49.377700134977829 ], [ 31.563517733476647, 49.367700134977824 ], [ 31.573517733476645, 49.367700134977824 ] ] ] } },
{ "type": "Feature", "properties": { "oblast": "Kirovohrad", "oblast_uk": "Кіровоградська область", "iso_3166_2": "UA-35", "sample_idx": 0 }, "geometry": { "type": "Polygon", "coordinates": [ [ [ 31.356076398408145, 48.614105940796321 ], [ 31.356076398408145, 48.624105940796326 ], [ 31.346076398408147, 48.624105940796326 ], [ 31.346076398408147, 48.614105940796321 ], [ 31.356076398408145, 48.614105940796321 ] ] ] } },
{ "type": "Feature", "properties": { "oblast": "Kirovohrad", "oblast_uk": "Кіровоградська область", "iso_3166_2": "UA-35", "sample_idx": 1 }, "geometry": { "type": "Polygon", "coordinates": [ [ [ 31.993822196281418, 48.82755103196196 ], [ 31.993822196281418, 48.837551031961965 ], [ 31.98382219628142, 48.837551031961965 ], [ 31.98382219628142, 48.82755103196196 ], [ 31.993822196281418, 48.82755103196196 ] ] ] } },
{ "type": "Feature", "properties": { "oblast": "Kirovohrad", "oblast_uk": "Кіровоградська область", "iso_3166_2": "UA-35", "sample_idx": 2 }, "geometry": { "type": "Polygon", "coordinates": [ [ [ 32.840637775970492, 48.75462820308779 ], [ 32.840637775970492, 48.764628203087796 ], [ 32.830637775970487, 48.764628203087796 ], [ 32.830637775970487, 48.75462820308779 ], [ 32.840637775970492, 48.75462820308779 ] ] ] } },
{ "type": "Feature", "properties": { "oblast": "Kirovohrad", "oblast_uk": "Кіровоградська область", "iso_3166_2": "UA-35", "sample_idx": 3 }, "geometry": { "type": "Polygon", "coordinates": [ [ [ 32.517253570944796, 48.245934625341597 ], [ 32.517253570944796, 48.255934625341602 ], [ 32.507253570944791, 48.255934625341602 ], [ 32.507253570944791, 48.245934625341597 ], [ 32.517253570944796, 48.245934625341597 ] ] ] } }
]
}
